04497   12.6   0.15 K172G 203.53773  303.00364   93.14067    9.75970  0.2699210  0.26081513   2.4261307  0 MPO384793  1382  24 1931-2016 0.47 M-v 38h MPCLINUX   0000   (4497) Taguchi            20160623
04498   11.7   0.15 K172G 259.46692   73.98684  280.65637    8.87370  0.1220650  0.18963828   3.0004430  0 MPO381293  1376  23 1971-2016 0.45 M-v 38h MPCLINUX   0000   (4498) Shinkoyama         20160616
04499   12.5   0.15 K172G  50.67140   88.45822  318.04884    6.54325  0.1600018  0.17403136   3.1772475  0 MPO400042  1321  23 1953-2017 0.48 M-v 38h MPCLINUX   0000   (4499) Davidallen         20170223
04500   12.6   0.15 K172G  29.66619  306.20138  136.99587    2.93961  0.1624749  0.17468185   3.1693548  0 MPO400042  1429  23 1950-2017 0.49 M-v 38h MPCLINUX   0000   (4500) Pascal             20170223
04501   10.5   0.15 K172G 207.35837  180.85285  244.27359    8.30284  0.0522155  0.08294931   5.2070794  0 MPO384793  1026  24 1951-2016 0.49 M-v 38h MPCLINUX   0009   (4501) Eurypylos          20160709
04502   11.8   0.15 K172G 240.53750  333.14303  169.73469   13.30634  0.0938222  0.22913641   2.6448841  0 MPO395040  1426  27 1941-2016 0.43 M-v 38h MPCLINUX   0000   (4502) Elizabethann       20161222
04503   15.6   0.15 K172G  27.01560   76.37383   46.00660    2.51361  0.5230953  0.22127192   2.7071886  0 MPO400042   537  14 1980-2017 0.59 M-v 38h MPCLINUX   1804   (4503) Cleobulus          20170304
04504   13.2   0.15 K172G 195.20940  227.34348  180.75144   14.85054  0.1333575  0.23505804   2.6002752  0 MPO381293  1144  23 1953-2016 0.49 M-v 38h MPCLINUX   0000   (4504) Jenkinson          20160616
04505   11.4   0.15 K172G  75.45129   20.09165  119.10613   11.83105  0.0526684  0.18865981   3.0108084  0 MPO400042  1390  25 1943-2017 0.43 M-v 38h MPCLINUX   0000   (4505) Okamura            20170303
04506   12.6   0.15 K172G 116.27902  170.23457   63.73270    3.00439  0.0119251  0.20129971   2.8834159  0 MPO395040  1564  26 1949-2016 0.47 M-v 38h MPCLINUX   0000   (4506) Hendrie            20161117
04507   12.0   0.15 K172G 249.94050   78.58485   47.52485    2.66365  0.0092246  0.20275171   2.8696330  0 MPO400042  1929  26 1962-2017 0.46 M-v 38h MPCLINUX   0000   (4507) Petercollins       20170123
04508   13.7   0.15 K172G  53.52133  147.39984   92.92325    1.98105  0.0844207  0.30296940   2.1955173  0 MPO384793  1915  22 1951-2016 0.47 M-v 38h MPCLINUX   0000   (4508) Takatsuki          20160718
04509   11.9   0.15 K172G 235.36433  176.38188  184.34177   10.94527  0.2708162  0.21439733   2.7647538  0 MPO400042  1373  21 1917-2017 0.50 M-v 38h MPCLINUX   0000   (4509) Gorbatskij         20170302
04510   12.9   0.15 K172G 345.37441  338.72076    3.46491    7.04625  0.1389386  0.27187206   2.3598967  0 MPO389627  1594  21 1930-2016 0.45 M-v 38h MPCLINUX   0000   (4510) Shawna             20160921
04511   12.2   0.15 K172G   0.13182  302.98479    0.34546   22.76226  0.2502179  0.26507756   2.4000525  0 MPO384793  1250  19 1935-2016 0.43 M-v 38h MPCLINUX   0000   (4511) Rembrandt          20160628
04512   11.7   0.15 K172G 345.34813  357.09591  119.53961   10.31067  0.2045992  0.21399270   2.7682379  0 MPO400042  1323  25 1939-2017 0.47 M-v 38h MPCLINUX   0000   (4512) Sinuhe             20170303
04513   12.0   0.15 K172G 175.97024  206.19057  208.84237    9.95064  0.0793128  0.18737573   3.0245481  0 MPO400042  1303  22 1971-2017 0.47 M-v 38h MPCLINUX   0000   (4513) Louvre             20170307
04514   13.7   0.15 K172G 191.69705   88.57945  110.38021    7.95961  0.1525873  0.27448527   2.3448947  0 MPO395040  1332  22 1972-2016 0.47 M-v 38h MPCLINUX   0000   (4514) Vilen              20161220
04515   13.7   0.15 K172G 142.22006  102.99610  337.84968    1.96101  0.1542296  0.26279352   2.4139390  0 MPO381293  1607  25 1953-2016 0.48 M-v 38h MPCLINUX   0000   (4515) Khrennikov         20160608
04516   12.5   0.15 K172G   6.61027  317.37077  174.80154    4.68357  0.0096580  0.21296639   2.7771244  0 MPO400042  1826  26 1954-2017 0.48 M-v 38h MPCLINUX   0000   (4516) Pugovkin           20170306
04517   13.3   0.15 K172G  61.22260  284.68289   32.10241    4.19675  0.1746045  0.31099236   2.1575932  0 MPO400042  1759  21 1971-2017 0.44 M-v 38h MPCLINUX   0000   (4517) Ralpharvey         20170127
04518   13.7   0.15 K172G 158.08328   97.89904  167.93732    7.00576  0.0986177  0.27943975   2.3170954  0 MPO400042  1325  20 1952-2017 0.53 M-v 38h MPCLINUX   0000   (4518) Raikin             20170225
04519   13.7   0.15 K172G 176.29266  185.12886  162.56824    3.20794  0.0599172  0.30132902   2.2034781  0 MPO400042  1722  24 1955-2017 0.45 M-v 38h MPCLINUX   0000   (4519) Voronezh           20170306
04520   13.3   0.15 K172G 176.14557  258.31441   94.43044    4.26156  0.2200030  0.28728438   2.2747205  0 MPO400042  1604  22 1955-2017 0.48 M-v 38h MPCLINUX   0000   (4520) Dovzhenko          20170304
04521   12.1   0.15 K172G 268.51081  212.77319   48.09565   14.37862  0.0884233  0.17902466   3.1178902  0 MPO400042  1259  21 1979-2017 0.45 M-v 38h MPCLINUX   0000   (4521) Akimov             20170307
04522   12.3   0.15 K172G 281.88112  228.87302  131.91144   12.51239  0.2059941  0.22605134   2.6688940  0 MPO384794  1654  23 1950-2016 0.47 M-v 38h MPCLINUX   0000   (4522) Britastra          20160727
04523   12.9   0.15 K172G  73.38253  316.49907  210.07266   11.07513  0.1403253  0.22449199   2.6812387  0 MPO384794  1492  20 1979-2016 0.50 M-v 38h MPCLINUX   0000   (4523) MIT                20160801
04524   12.9   0.15 K172G  31.91932  149.46920  177.20436    7.28635  0.1328395  0.27877375   2.3207844  0 MPO395040  1549  21 1953-2016 0.48 M-v 38h MPCLINUX   0000   (4524) Barklajdetolli     20161123
04525   13.5   0.15 K172G 260.81078   30.64156   72.98559   13.52835  0.2012976  0.23884517   2.5727154  0 MPO389627   815  20 1955-2016 0.47 M-v 38h MPCLINUX   0000   (4525) Johnbauer          20161026
04526   12.4   0.15 K172G  77.02656  100.04717  101.54219   14.15031  0.1153753  0.23103959   2.6303393  0 MPO389627  1392  20 1982-2016 0.41 M-v 38h MPCLINUX   0000   (4526) Konko              20160914
04527   13.9   0.15 K172G 118.62213  172.18491  146.06253    4.24223  0.2117498  0.29463607   2.2367225  0 MPO400042  1446  21 1982-2017 0.54 M-v 38h MPCLINUX   0000   (4527) Schoenberg         20170309
04528   12.1   0.15 K172G 311.62613  315.70868  161.49469    8.70802  0.1345504  0.24184091   2.5514254  0 MPO400043  1523  24 1965-2017 0.46 M-v 38h MPCLINUX   0000   (4528) Berg               20170216
04529   12.4   0.15 K172G 123.54454    5.83434  131.78066   10.99740  0.0601327  0.18847118   3.0128170  0 MPO384794  1274  24 1981-2016 0.45 M-v 38h MPCLINUX   0000   (4529) Webern             20160724
04530   12.6   0.15 K172G 334.41843   16.40868  164.81224    5.21460  0.0992546  0.17913451   3.1166154  0 MPO400043  1429  24 1953-2017 0.47 M-v 38h MPCLINUX   0000   (4530) Smoluchowski       20170306
04531   14.0   0.15 K172G 219.29614  143.08598   15.09968   23.97840  0.0404473  0.38784757   1.8622101  0 MPO395040   688  17 1975-2016 0.50 M-v 38h MPCLINUX   0006   (4531) Asaro              20161123
04532   12.0   0.15 K172G  80.64027  348.07824  199.84574   10.14148  0.0438977  0.19036451   2.9928071  0 MPO384794  1364  21 1959-2016 0.44 M-v 38h MPCLINUX   0000   (4532) Copland            20160801
04533   12.9   0.15 K172G 198.41827  292.16975  178.57080   22.66649  0.2438869  0.27019474   2.3696532  0 MPO389627  1022  18 1957-2016 0.48 M-v 38h MPCLINUX   0007   (4533) Orth               20160928
04534   12.8   0.15 K172G 235.90609  311.28895  313.31477    7.24031  0.1783626  0.21079032   2.7962046  0 MPO400043  1515  21 1980-2017 0.49 M-v 38h MPCLINUX   0000   (4534) Rimskij-Korsakov   20170307
04535   12.4   0.15 K172G 273.78092   98.69986  137.86488    7.75288  0.1615299  0.21196424   2.7858708  0 MPO400043  1601  21 1966-2017 0.45 M-v 38h MPCLINUX   0000   (4535) Adamcarolla        20170307
04536   13.7   0.15 K172G  43.41708  237.23217  313.52629    4.17437  0.0831237  0.30305011   2.1951275  0 MPO378629  1435  20 1950-2016 0.48 M-v 38h MPCLINUX   0000   (4536) Drewpinsky         20160514
04537   11.6   0.15 K172G  65.81185  297.06437  227.91583    8.77405  0.0357236  0.18886709   3.0086052  0 MPO384794  1422  22 1951-2016 0.46 M-v 38h MPCLINUX   0000   (4537) Valgrirasp         20160712
04538   13.0   0.15 K172G 186.47203  163.45449  219.25402    3.95353  0.1530419  0.26089557   2.4256320  0 MPO400043  1446  21 1969-2017 0.47 M-v 38h MPCLINUX   0000   (4538) Vishyanand         20170131
04539   13.0   0.15 K172G 217.29948  110.71406  256.06817    5.70299  0.0685305  0.22550786   2.6731804  0 MPO400043  1579  21 1979-2017 0.46 M-v 38h MPCLINUX   0000   (4539) Miyagino           20170223
04540   12.5   0.15 K172G  94.98149  260.84699  246.56809    6.35356  0.1765873  0.22640151   2.6661414  0 MPO384794  1646  22 1962-2016 0.47 M-v 38h MPCLINUX   0000   (4540) Oriani             20160803
04541   12.9   0.15 K172G 257.01223   23.39749   65.97317    4.78094  0.0201227  0.26859802   2.3790351  0 MPO389627  1547  24 1929-2016 0.47 M-v 38h MPCLINUX   0000   (4541) Mizuno             20161102
04542   11.5   0.15 K172G  21.84965  144.41192  104.32253   11.28998  0.0523478  0.18861170   3.0113204  0 MPO389628  1227  23 1952-2016 0.45 M-v 38h MPCLINUX   0000   (4542) Mossotti           20160914
04543    9.7   0.15 K172G 226.20372   85.20486  325.38100   14.71210  0.0953540  0.08501425   5.1224168  0 MPO400043   845  23 1955-2016 0.51 M-v 38h MPCLINUX   0009   (4543) Phoinix            20160921
04544   17.1   0.15 K172G 279.88821  333.84574   23.99160   14.14659  0.2502243  0.92662087   1.0420007  0 MPO 77285   117   6 1989-2005 0.66 M-v 3Eh MPCW       1803   (4544) Xanthus            20050505
04545   12.2   0.15 K172G 265.35655   71.23852   36.72221    1.80513  0.1362274  0.17672940   3.1448276  0 MPO395040  1484  24 1952-2017 0.48 M-v 38h MPCLINUX   0000   (4545) Primolevi          20170107
